CCSDS_OMM_VERS = 2.0
CREATION_DATE  = 
ORIGINATOR     = 

OBJECT_NAME    = STARLINK-36378
OBJECT_ID      = 2026-040L
CENTER_NAME    = EARTH
REF_FRAME      = TEME
TIME_SYSTEM    = UTC
MEAN_ELEMENT_THEORY = SGP/SGP4

EPOCH          = 2026-03-15T22:00:01.999584
MEAN_MOTION    = 15.90504512
ECCENTRICITY   = .00012485
INCLINATION    = 97.2727
RA_OF_ASC_NODE = 23.6313
ARG_OF_PERICENTER = 100.8609
MEAN_ANOMALY   = 226.2563

EPHEMERIS_TYPE = 0
CLASSIFICATION_TYPE = U
NORAD_CAT_ID   = 68025
ELEMENT_SET_NO = 999
REV_AT_EPOCH   = 337
BSTAR          = -.53934328E-2
MEAN_MOTION_DOT = -.1633273E-1
MEAN_MOTION_DDOT = .73589184E-3

CCSDS_OMM_VERS = 2.0
CREATION_DATE  = 
ORIGINATOR     = 

OBJECT_NAME    = STARLINK-36884
OBJECT_ID      = 2026-040M
CENTER_NAME    = EARTH
REF_FRAME      = TEME
TIME_SYSTEM    = UTC
MEAN_ELEMENT_THEORY = SGP/SGP4

EPOCH          = 2026-03-15T22:00:01.999584
MEAN_MOTION    = 15.90474986
ECCENTRICITY   = .00012491
INCLINATION    = 97.2718
RA_OF_ASC_NODE = 23.6283
ARG_OF_PERICENTER = 94.7080
MEAN_ANOMALY   = 228.0281

EPHEMERIS_TYPE = 0
CLASSIFICATION_TYPE = U
NORAD_CAT_ID   = 68026
ELEMENT_SET_NO = 999
REV_AT_EPOCH   = 342
BSTAR          = -.53805022E-2
MEAN_MOTION_DOT = -.1627003E-1
MEAN_MOTION_DDOT = .7304494E-3

CCSDS_OMM_VERS = 2.0
CREATION_DATE  = 
ORIGINATOR     = 

OBJECT_NAME    = STARLINK-36940
OBJECT_ID      = 2026-040N
CENTER_NAME    = EARTH
REF_FRAME      = TEME
TIME_SYSTEM    = UTC
MEAN_ELEMENT_THEORY = SGP/SGP4

EPOCH          = 2026-03-15T22:00:01.999584
MEAN_MOTION    = 15.89624031
ECCENTRICITY   = .00013133
INCLINATION    = 97.2796
RA_OF_ASC_NODE = 23.6614
ARG_OF_PERICENTER = 85.8568
MEAN_ANOMALY   = 309.4186

EPHEMERIS_TYPE = 0
CLASSIFICATION_TYPE = U
NORAD_CAT_ID   = 68027
ELEMENT_SET_NO = 999
REV_AT_EPOCH   = 352
BSTAR          = -.69399203E-2
MEAN_MOTION_DOT = -.2005834E-1
MEAN_MOTION_DDOT = .10700363E-2

CCSDS_OMM_VERS = 2.0
CREATION_DATE  = 
ORIGINATOR     = 

OBJECT_NAME    = STARLINK-36253
OBJECT_ID      = 2026-040P
CENTER_NAME    = EARTH
REF_FRAME      = TEME
TIME_SYSTEM    = UTC
MEAN_ELEMENT_THEORY = SGP/SGP4

EPOCH          = 2026-03-15T22:00:01.999584
MEAN_MOTION    = 15.80862963
ECCENTRICITY   = .0001299
INCLINATION    = 97.2841
RA_OF_ASC_NODE = 23.4359
ARG_OF_PERICENTER = 61.3161
MEAN_ANOMALY   = 172.6829

EPHEMERIS_TYPE = 0
CLASSIFICATION_TYPE = U
NORAD_CAT_ID   = 68028
ELEMENT_SET_NO = 999
REV_AT_EPOCH   = 352
BSTAR          = -.29852913E-3
MEAN_MOTION_DOT = -.57074E-3
MEAN_MOTION_DDOT = 0

CCSDS_OMM_VERS = 2.0
CREATION_DATE  = 
ORIGINATOR     = 

OBJECT_NAME    = STARLINK-36944
OBJECT_ID      = 2026-040Q
CENTER_NAME    = EARTH
REF_FRAME      = TEME
TIME_SYSTEM    = UTC
MEAN_ELEMENT_THEORY = SGP/SGP4

EPOCH          = 2026-03-15T22:00:01.999584
MEAN_MOTION    = 15.90548211
ECCENTRICITY   = .00012576
INCLINATION    = 97.2716
RA_OF_ASC_NODE = 23.6314
ARG_OF_PERICENTER = 90.0127
MEAN_ANOMALY   = 241.2339

EPHEMERIS_TYPE = 0
CLASSIFICATION_TYPE = U
NORAD_CAT_ID   = 68029
ELEMENT_SET_NO = 999
REV_AT_EPOCH   = 342
BSTAR          = -.53926258E-2
MEAN_MOTION_DOT = -.1636598E-1
MEAN_MOTION_DDOT = .73899346E-3

CCSDS_OMM_VERS = 2.0
CREATION_DATE  = 
ORIGINATOR     = 

OBJECT_NAME    = STARLINK-36942
OBJECT_ID      = 2026-040R
CENTER_NAME    = EARTH
REF_FRAME      = TEME
TIME_SYSTEM    = UTC
MEAN_ELEMENT_THEORY = SGP/SGP4

EPOCH          = 2026-03-15T22:00:01.999584
MEAN_MOTION    = 15.90573444
ECCENTRICITY   = .0001203
INCLINATION    = 97.2733
RA_OF_ASC_NODE = 23.6348
ARG_OF_PERICENTER = 96.3451
MEAN_ANOMALY   = 239.3575

EPHEMERIS_TYPE = 0
CLASSIFICATION_TYPE = U
NORAD_CAT_ID   = 68030
ELEMENT_SET_NO = 999
REV_AT_EPOCH   = 342
BSTAR          = -.5395191E-2
MEAN_MOTION_DOT = -.1639423E-1
MEAN_MOTION_DDOT = .74154499E-3

CCSDS_OMM_VERS = 2.0
CREATION_DATE  = 
ORIGINATOR     = 

OBJECT_NAME    = STARLINK-36913
OBJECT_ID      = 2026-040S
CENTER_NAME    = EARTH
REF_FRAME      = TEME
TIME_SYSTEM    = UTC
MEAN_ELEMENT_THEORY = SGP/SGP4

EPOCH          = 2026-03-15T22:00:01.999584
MEAN_MOTION    = 15.90606604
ECCENTRICITY   = .00012024
INCLINATION    = 97.2737
RA_OF_ASC_NODE = 23.6367
ARG_OF_PERICENTER = 92.5712
MEAN_ANOMALY   = 247.5684

EPHEMERIS_TYPE = 0
CLASSIFICATION_TYPE = U
NORAD_CAT_ID   = 68031
ELEMENT_SET_NO = 999
REV_AT_EPOCH   = 342
BSTAR          = -.54029691E-2
MEAN_MOTION_DOT = -.1644482E-1
MEAN_MOTION_DDOT = .74604017E-3

CCSDS_OMM_VERS = 2.0
CREATION_DATE  = 
ORIGINATOR     = 

OBJECT_NAME    = STARLINK-36935
OBJECT_ID      = 2026-040T
CENTER_NAME    = EARTH
REF_FRAME      = TEME
TIME_SYSTEM    = UTC
MEAN_ELEMENT_THEORY = SGP/SGP4

EPOCH          = 2026-03-15T22:00:01.999584
MEAN_MOTION    = 15.90880308
ECCENTRICITY   = .00011272
INCLINATION    = 97.2766
RA_OF_ASC_NODE = 23.6501
ARG_OF_PERICENTER = 90.9295
MEAN_ANOMALY   = 280.1963

EPHEMERIS_TYPE = 0
CLASSIFICATION_TYPE = U
NORAD_CAT_ID   = 68032
ELEMENT_SET_NO = 999
REV_AT_EPOCH   = 352
BSTAR          = -.61109439E-2
MEAN_MOTION_DOT = -.1882872E-1
MEAN_MOTION_DDOT = .96247515E-3

CCSDS_OMM_VERS = 2.0
CREATION_DATE  = 
ORIGINATOR     = 

OBJECT_NAME    = STARLINK-36947
OBJECT_ID      = 2026-040U
CENTER_NAME    = EARTH
REF_FRAME      = TEME
TIME_SYSTEM    = UTC
MEAN_ELEMENT_THEORY = SGP/SGP4

EPOCH          = 2026-03-15T22:00:01.999584
MEAN_MOTION    = 15.90662364
ECCENTRICITY   = .00012005
INCLINATION    = 97.2740
RA_OF_ASC_NODE = 23.6384
ARG_OF_PERICENTER = 95.9286
MEAN_ANOMALY   = 248.1829

EPHEMERIS_TYPE = 0
CLASSIFICATION_TYPE = U
NORAD_CAT_ID   = 68033
ELEMENT_SET_NO = 999
REV_AT_EPOCH   = 342
BSTAR          = -.54009773E-2
MEAN_MOTION_DOT = -.1648468E-1
MEAN_MOTION_DDOT = .74981103E-3

CCSDS_OMM_VERS = 2.0
CREATION_DATE  = 
ORIGINATOR     = 

OBJECT_NAME    = STARLINK-36939
OBJECT_ID      = 2026-040V
CENTER_NAME    = EARTH
REF_FRAME      = TEME
TIME_SYSTEM    = UTC
MEAN_ELEMENT_THEORY = SGP/SGP4

EPOCH          = 2026-03-15T22:00:01.999584
MEAN_MOTION    = 15.90865687
ECCENTRICITY   = .00012487
INCLINATION    = 97.2766
RA_OF_ASC_NODE = 23.6468
ARG_OF_PERICENTER = 96.6040
MEAN_ANOMALY   = 264.7334

EPHEMERIS_TYPE = 0
CLASSIFICATION_TYPE = U
NORAD_CAT_ID   = 68034
ELEMENT_SET_NO = 999
REV_AT_EPOCH   = 342
BSTAR          = -.57084039E-2
MEAN_MOTION_DOT = -.1758995E-1
MEAN_MOTION_DDOT = .84761523E-3

CCSDS_OMM_VERS = 2.0
CREATION_DATE  = 
ORIGINATOR     = 

OBJECT_NAME    = STARLINK-36943
OBJECT_ID      = 2026-040W
CENTER_NAME    = EARTH
REF_FRAME      = TEME
TIME_SYSTEM    = UTC
MEAN_ELEMENT_THEORY = SGP/SGP4

EPOCH          = 2026-03-15T22:00:01.999584
MEAN_MOTION    = 15.90390794
ECCENTRICITY   = .00012257
INCLINATION    = 97.2790
RA_OF_ASC_NODE = 23.6567
ARG_OF_PERICENTER = 91.3281
MEAN_ANOMALY   = 290.5941

EPHEMERIS_TYPE = 0
CLASSIFICATION_TYPE = U
NORAD_CAT_ID   = 68035
ELEMENT_SET_NO = 999
REV_AT_EPOCH   = 347
BSTAR          = -.64660245E-2
MEAN_MOTION_DOT = -.1942894E-1
MEAN_MOTION_DDOT = .10156884E-2

CCSDS_OMM_VERS = 2.0
CREATION_DATE  = 
ORIGINATOR     = 

OBJECT_NAME    = STARLINK-36906
OBJECT_ID      = 2026-040X
CENTER_NAME    = EARTH
REF_FRAME      = TEME
TIME_SYSTEM    = UTC
MEAN_ELEMENT_THEORY = SGP/SGP4

EPOCH          = 2026-03-15T22:00:01.999584
MEAN_MOTION    = 15.90794053
ECCENTRICITY   = .00012098
INCLINATION    = 97.2755
RA_OF_ASC_NODE = 23.6445
ARG_OF_PERICENTER = 94.0923
MEAN_ANOMALY   = 263.1451

EPHEMERIS_TYPE = 0
CLASSIFICATION_TYPE = U
NORAD_CAT_ID   = 68036
ELEMENT_SET_NO = 999
REV_AT_EPOCH   = 342
BSTAR          = -.55529865E-2
MEAN_MOTION_DOT = -.1705521E-1
MEAN_MOTION_DDOT = .79975374E-3

