STARLINK-36378          
1 68025U 26040L   26074.91668981 -.01633273  73589-3 -53934-2 0  9998
2 68025  97.2727  23.6313 0001248 100.8609 226.2563 15.90504512  3375
STARLINK-36884          
1 68026U 26040M   26074.91668981 -.01627003  73045-3 -53805-2 0  9997
2 68026  97.2718  23.6283 0001249  94.7080 228.0281 15.90474986  3421
STARLINK-36940          
1 68027U 26040N   26074.91668981 -.02005834  10700-2 -69399-2 0  9994
2 68027  97.2796  23.6614 0001313  85.8568 309.4186 15.89624031  3525
STARLINK-36253          
1 68028U 26040P   26074.91668981 -.00057074  00000+0 -29853-3 0  9997
2 68028  97.2841  23.4359 0001299  61.3161 172.6829 15.80862963  3525
STARLINK-36944          
1 68029U 26040Q   26074.91668981 -.01636598  73899-3 -53926-2 0  9990
2 68029  97.2716  23.6314 0001257  90.0127 241.2339 15.90548211  3421
STARLINK-36942          
1 68030U 26040R   26074.91668981 -.01639423  74154-3 -53952-2 0  9996
2 68030  97.2733  23.6348 0001203  96.3451 239.3575 15.90573444  3425
STARLINK-36913          
1 68031U 26040S   26074.91668981 -.01644482  74604-3 -54030-2 0  9996
2 68031  97.2737  23.6367 0001202  92.5712 247.5684 15.90606604  3425
STARLINK-36935          
1 68032U 26040T   26074.91668981 -.01882872  96248-3 -61109-2 0  9997
2 68032  97.2766  23.6501 0001127  90.9295 280.1963 15.90880308  3521
STARLINK-36947          
1 68033U 26040U   26074.91668981 -.01648468  74981-3 -54010-2 0  9992
2 68033  97.2740  23.6384 0001200  95.9286 248.1829 15.90662364  3424
STARLINK-36939          
1 68034U 26040V   26074.91668981 -.01758995  84762-3 -57084-2 0  9992
2 68034  97.2766  23.6468 0001248  96.6040 264.7334 15.90865687  3422
STARLINK-36943          
1 68035U 26040W   26074.91668981 -.01942894  10157-2 -64660-2 0  9990
2 68035  97.2790  23.6567 0001225  91.3281 290.5941 15.90390794  3472
STARLINK-36906          
1 68036U 26040X   26074.91668981 -.01705521  79975-3 -55530-2 0  9995
2 68036  97.2755  23.6445 0001209  94.0923 263.1451 15.90794053  3427
